UWE-4                   
1 43880U 18111E   24024.24968656  .00011462  00000+0  78605-3 0  9995
2 43880  97.6236 291.3462 0018853 137.4810 222.7880 15.06036994275594
JAISAT-1                
1 44419U 19038F   24023.93953025  .00067756  00000+0  12572-2 0  9999
2 44419  97.6831  20.7885 0007873 210.5459 149.5333 15.48688407252467
DUCHIFAT-3              
1 44854U 19089C   24023.87839532  .00015160  00000+0  88310-3 0  9993
2 44854  36.9573 207.6036 0009100 336.4138  23.6189 15.11346687226171
TIANYAN 01              
1 44881U 19093C   24024.49332356  .00001919  00000+0  24096-3 0  9997
2 44881  97.8429 104.0481 0015909  77.1206 283.1784 14.83205632221597
RS-44 & BREEZE-KM R/B   
1 44909U 19096E   24024.00766441  .00000033  00000+0  85297-4 0  9991
2 44909  82.5204 201.2169 0217913  30.8973 330.4741 12.79726271190458
BY70-2                  
1 45857U 20042B   24024.46557793  .00062109  00000+0  43508-2 0  9994
2 45857  97.9195 112.0584 0007638 338.4698  21.6206 15.04938380192636
SALSAT                  
1 46495U 20068K   24023.86266634  .00007824  00000+0  47619-3 0  9996
2 46495  97.7984 339.9716 0016611  89.1535 271.1597 15.10589914182352
RADFXSAT-2 (AO-109)     
1 47311U 21002C   24024.28596065  .00120769  00000+0  13169-2 0  9990
2 47311  60.6725 276.9210 0026718  69.3186 291.0780 15.62253865168520
UVSQ-SAT                
1 47438U 21006AB  24023.73164044  .00032763  00000+0  97448-3 0  9990
2 47438  97.3537  83.6920 0008382  26.4225 333.7444 15.34635391166340
LEDSAT                  
1 49069U 21073D   24024.15252327  .00015790  00000+0  73994-3 0  9996
2 49069  97.4579  96.7423 0022611  73.4860 286.8857 15.19551192134395
XW-3 (CAS-9)            
1 50466U 21131B   24024.47632624  .00001130  00000+0  37786-3 0  9993
2 50466  98.5374 110.2323 0004130 184.8251 175.2898 14.39320824109183
TEVEL-3                 
1 50988U 22002E   24024.45364547  .00060398  00000+0  15192-2 0  9991
2 50988  97.4043  96.5452 0005252 160.6821 199.4625 15.39720848112623
TEVEL-8                 
1 50989U 22002F   24024.41865229  .00063329  00000+0  15977-2 0  9999
2 50989  97.4060  96.5918 0005184 159.4019 200.7436 15.39616180112617
TEVEL-5                 
1 50998U 22002Q   24024.42795763  .00068365  00000+0  16222-2 0  9994
2 50998  97.4036  97.2750 0005945 154.5219 205.6322 15.41453187112678
TEVEL-6                 
1 50999U 22002R   24024.42784693  .00068403  00000+0  16246-2 0  9994
2 50999  97.4034  97.2614 0005943 154.2850 205.8693 15.41425127112678
TEVEL-1                 
1 51013U 22002AF  24024.47234158  .00063125  00000+0  15917-2 0  9993
2 51013  97.4036  96.4626 0005053 159.7745 200.3702 15.39633904112624
TEVEL-7                 
1 51062U 22002CG  24024.41469942  .00063777  00000+0  16056-2 0  9990
2 51062  97.4055  96.5583 0005176 159.8475 200.2976 15.39678583112612
TEVEL-4                 
1 51063U 22002CH  24024.43347669  .00061718  00000+0  15618-2 0  9990
2 51063  97.4053  96.5256 0005144 159.1866 200.9590 15.39530541112610
TEVEL-2                 
1 51069U 22002CP  24024.45391149  .00060553  00000+0  15222-2 0  9997
2 51069  97.4041  96.5123 0005207 160.3184 199.8264 15.39738519112623
GREENCUBE               
1 53106U 22080B   24023.90926672 -.00000003  00000+0  00000+0 0  9991
2 53106  70.1321 243.0011 0008307 135.9399 224.1923  6.42557719 35938
CYCLOPS (RS29S)         
1 53373U 22096D   24024.46480784  .00267173  00000+0  17832-2 0  9991
2 53373  97.3951 302.1492 0006157 101.5846 258.6110 15.74558261 81996
MONITOR-1 (RS32S)       
1 53374U 22096E   24024.47574309  .00193240  00000+0  16541-2 0  9999
2 53374  97.3896 301.1985 0006123  96.3212 263.8747 15.68824748 81940
KUZBASS-300 (RS34S)     
1 53375U 22096F   24024.45104561  .00091317  00000+0  13111-2 0  9999
2 53375  97.3992 299.2794 0004550  85.3118 274.8656 15.55794044 81805
UTMN (RS23S)            
1 53376U 22096G   24024.43427971  .00106177  00000+0  13847-2 0  9998
2 53376  97.3970 299.7260 0004828  91.8156 268.3652 15.58333734 81832
MIET-AIS (RS28S)        
1 53377U 22096H   24024.50109624  .00076186  00000+0  12021-2 0  9998
2 53377  97.4008 298.9500 0004064  86.9457 273.2261 15.53257583 81782
KAI-1 (RS26S)           
1 53378U 22096J   24024.45653049  .00054061  00000+0  10130-2 0  9995
2 53378  97.4051 297.8621 0003753  85.4664 274.7016 15.48491231 81701
ISOI (RS19S)            
1 53381U 22096M   24024.49280589  .00080386  00000+0  12078-2 0  9990
2 53381  97.4029 299.5392 0003142  65.3325 294.8256 15.54597114 81823
CUBESX-HSE-2 (RS21S)    
1 53383U 22096P   24024.46485006  .00099774  00000+0  13232-2 0  9994
2 53383  97.3978 300.0133 0003346  60.2918 299.8670 15.57914077 81858
SIREN (RS30S)           
1 53384U 22096Q   24024.48435497  .00062640  00000+0  10571-2 0  9991
2 53384  97.4026 298.8379 0002900  47.9475 312.2024 15.51436172 81778
GEOSCAN-EDELVEIS (RS20S)
1 53385U 22096R   24024.48107346  .00394231  00000+0  18099-2 0  9998
2 53385  97.3897 303.5944 0004444  91.3733 268.8045 15.82626462 82127
CAS-5A (FO-118)         
1 54684U 22167C   24024.44817028  .00026247  00000+0  11580-2 0  9998
2 54684  97.5846 167.0415 0011222 293.6122  66.3934 15.21694338 62231
STRATOSAT-TK 1 (RS52S)  
1 57167U 23091B   24024.48089557  .00016545  00000+0  10838-2 0  9991
2 57167  97.6363  78.3281 0015289 253.4802 106.4746 15.07701834 31727
UMKA 1 (RS40S)          
1 57172U 23091G   24024.33468080  .00007108  00000+0  49661-3 0  9995
2 57172  97.6364  77.9064 0015677 253.4634 106.4871 15.05534975 31684
CUBESX-HSE 3 (RS42S)    
1 57178U 23091N   24024.44693287  .00009787  00000+0  67128-3 0  9995
2 57178  97.6386  78.1671 0016917 247.8873 112.0558 15.06106832 31707
MONITOR-4 (RS57S)       
1 57182U 23091S   24024.46651689  .00009165  00000+0  63327-3 0  9999
2 57182  97.6387  78.1101 0016816 248.3043 111.6394 15.05851057 31702
MONITOR-2 (RS39S)       
1 57184U 23091U   24024.45645773  .00005559  00000+0  38559-3 0  9999
2 57184  97.6388  78.2892 0013173 241.0630 118.9277 15.05932688 31719
SVYATOBOR 1 (RS60S)     
1 57187U 23091X   24024.45753082  .00007924  00000+0  53555-3 0  9996
2 57187  97.6390  78.4443 0012841 238.6838 121.3133 15.06771783 31720
VIZARD-METEO (RS38S)    
1 57189U 23091Z   24024.31728744  .00009825  00000+0  64850-3 0  9992
2 57189  97.6379  78.4555 0011990 237.2953 122.7119 15.07589229 31711
NANOZOND 1 (RS49S)      
1 57190U 23091AA  24024.42797647  .00015142  00000+0  96336-3 0  9997
2 57190  97.6358  78.6970 0010610 243.2193 116.7950 15.08845958 31748
POLYTECH-UNIVERSE 3 (R*)
1 57191U 23091AB  24024.45052471  .00005990  00000+0  41604-3 0  9998
2 57191  97.6349  78.0550 0018756 260.4986  99.4121 15.05779185 31705
UTMN 2 (RS27S)          
1 57203U 23091AP  24024.47200509  .00010008  00000+0  66521-3 0  9992
2 57203  97.6387  78.5569 0012106 236.6601 123.3468 15.07324564 31731
ARCCUBE 1 (RS25S)       
1 57205U 23091AR  24024.47525494  .00016706  00000+0  10499-2 0  9990
2 57205  97.6340  78.7393 0010633 244.6996 115.3132 15.09273340 31756
KUZGTU 1 (RS47S)        
1 57217U 23091AV  24024.44647953  .00009035  00000+0  62106-3 0  9995
2 57217  97.6361  78.1005 0016826 249.3249 110.6174 15.06050169 31707
HADES-D (SO-121)        
1 58567U 23174CY  24023.74270777  .00032012  00000+0  16219-2 0  9998
2 58567  97.4749 100.4988 0015351  21.7819 338.4064 15.16806609 11659
